{"type": "FeatureCollection", "features": [ {"type": "Feature", "properties": {"norad_id": 40701, "name": "GAOFEN-8", "group": "resource", "lat": -19.784503247521, "lon": -9.65174851499944, "alt_km": 454.69580675056477, "timestamp": "2025-12-20T14:38:01.615730+00:00", "meta": {"OBJECT_NAME": "GAOFEN-8", "OBJECT_ID": "2015-030A", "EPOCH": "2025-12-20T05:57:56.359008", "MEAN_MOTION": 15.38779795, "ECCENTRICITY": 0.00119248, "INCLINATION": 97.6902, "RA_OF_ASC_NODE": 172.7556, "ARG_OF_PERICENTER": 113.0222, "MEAN_ANOMALY": 247.2282, "EPHEMERIS_TYPE": 0, "CLASSIFICATION_TYPE": "U", "NORAD_CAT_ID": 40701, "ELEMENT_SET_NO": 999, "REV_AT_EPOCH": 58386, "BSTAR": 0.00017778788, "MEAN_MOTION_DOT": 6.741e-05, "MEAN_MOTION_DDOT": 0}, "tle": {"line1": "1 40701U 15030A   25354.24856897  .00006741  00000+0  17779-3 0  9990", "line2": "2 40701  97.6902 172.7556 0011924 113.0222 247.2282 15.38779795583866"}}, "geometry": {"type": "Point", "coordinates": [-9.65174851499944, -19.784503247521]}}, {"type": "Feature", "properties": {"norad_id": 40718, "name": "CARBONITE 1 (CBNT-1)", "group": "resource", "lat": -10.880918095454138, "lon": 176.7847606911748, "alt_km": 635.0923383353584, "timestamp": "2025-12-20T14:38:01.615740+00:00", "meta": {"OBJECT_NAME": "CARBONITE 1 (CBNT-1)", "OBJECT_ID": "2015-032D", "EPOCH": "2025-12-20T06:35:07.480896", "MEAN_MOTION": 14.82777668, "ECCENTRICITY": 0.0014975, "INCLINATION": 97.6395, "RA_OF_ASC_NODE": 174.9859, "ARG_OF_PERICENTER": 156.7595, "MEAN_ANOMALY": 203.43, "EPHEMERIS_TYPE": 0, "CLASSIFICATION_TYPE": "U", "NORAD_CAT_ID": 40718, "ELEMENT_SET_NO": 999, "REV_AT_EPOCH": 56282, "BSTAR": 0.00025059737, "MEAN_MOTION_DOT": 1.979e-05, "MEAN_MOTION_DDOT": 0}, "tle": {"line1": "1 40718U 15032D   25354.27439214  .00001979  00000+0  25060-3 0  9993", "line2": "2 40718  97.6395 174.9859 0014975 156.7595 203.4300 14.82777668562829"}}, "geometry": {"type": "Point", "coordinates": [176.7847606911748, -10.880918095454138]}}, {"type": "Feature", "properties": {"norad_id": 40878, "name": "YAOGAN-27", "group": "resource", "lat": 11.878550171610328, "lon": -18.27482066019776, "alt_km": 1202.3086561406308, "timestamp": "2025-12-20T14:38:01.615750+00:00", "meta": {"OBJECT_NAME": "YAOGAN-27", "OBJECT_ID": "2015-040A", "EPOCH": "2025-12-20T05:27:00.238176", "MEAN_MOTION": 13.16060724, "ECCENTRICITY": 0.00075883, "INCLINATION": 100.1006, "RA_OF_ASC_NODE": 343.5085, "ARG_OF_PERICENTER": 268.4935, "MEAN_ANOMALY": 91.5309, "EPHEMERIS_TYPE": 0, "CLASSIFICATION_TYPE": "U", "NORAD_CAT_ID": 40878, "ELEMENT_SET_NO": 999, "REV_AT_EPOCH": 49412, "BSTAR": -0.0004245446, "MEAN_MOTION_DOT": -2.04e-06, "MEAN_MOTION_DDOT": 0}, "tle": {"line1": "1 40878U 15040A   25354.22708609 -.00000204  00000+0 -42454-3 0  9999", "line2": "2 40878 100.1006 343.5085 0007588 268.4935  91.5309 13.16060724494127"}}, "geometry": {"type": "Point", "coordinates": [-18.27482066019776, 11.878550171610328]}}, {"type": "Feature", "properties": {"norad_id": 40894, "name": "GAOFEN-9 01", "group": "resource", "lat": -77.70905617626357, "lon": 175.1141162994815, "alt_km": 635.1537089108324, "timestamp": "2025-12-20T14:38:01.615760+00:00", "meta": {"OBJECT_NAME": "GAOFEN-9 01", "OBJECT_ID": "2015-047A", "EPOCH": "2025-12-20T06:58:55.035264", "MEAN_MOTION": 14.82439401, "ECCENTRICITY": 0.0027782, "INCLINATION": 97.6533, "RA_OF_ASC_NODE": 32.92, "ARG_OF_PERICENTER": 10.0371, "MEAN_ANOMALY": 350.1392, "EPHEMERIS_TYPE": 0, "CLASSIFICATION_TYPE": "U", "NORAD_CAT_ID": 40894, "ELEMENT_SET_NO": 999, "REV_AT_EPOCH": 55368, "BSTAR": 0.00010716119, "MEAN_MOTION_DOT": 8.13e-06, "MEAN_MOTION_DDOT": 0}, "tle": {"line1": "1 40894U 15047A   25354.29091476  .00000813  00000+0  10716-3 0  9998", "line2": "2 40894  97.6533  32.9200 0027782  10.0371 350.1392 14.82439401553680"}}, "geometry": {"type": "Point", "coordinates": [175.1141162994815, -77.70905617626357]}}, {"type": "Feature", "properties": {"norad_id": 41026, "name": "YAOGAN-28", "group": "resource", "lat": 19.99741816436113, "lon": -45.15264881633247, "alt_km": 488.0456621910989, "timestamp": "2025-12-20T14:38:01.615770+00:00", "meta": {"OBJECT_NAME": "YAOGAN-28", "OBJECT_ID": "2015-064A", "EPOCH": "2025-12-20T07:38:06.839808", "MEAN_MOTION": 15.24468109, "ECCENTRICITY": 0.00126182, "INCLINATION": 97.281, "RA_OF_ASC_NODE": 131.8971, "ARG_OF_PERICENTER": 101.9108, "MEAN_ANOMALY": 258.3545, "EPHEMERIS_TYPE": 0, "CLASSIFICATION_TYPE": "U", "NORAD_CAT_ID": 41026, "ELEMENT_SET_NO": 999, "REV_AT_EPOCH": 56340, "BSTAR": 0.00023145887, "MEAN_MOTION_DOT": 5.627e-05, "MEAN_MOTION_DDOT": 0}, "tle": {"line1": "1 41026U 15064A   25354.31813472  .00005627  00000+0  23146-3 0  9995", "line2": "2 41026  97.2810 131.8971 0012618 101.9108 258.3545 15.24468109563400"}}, "geometry": {"type": "Point", "coordinates": [-45.15264881633247, 19.99741816436113]}}, {"type": "Feature", "properties": {"norad_id": 41038, "name": "YAOGAN-29", "group": "resource", "lat": 18.122597645355338, "lon": -159.5475379325657, "alt_km": 620.2495516012077, "timestamp": "2025-12-20T14:38:01.615780+00:00", "meta": {"OBJECT_NAME": "YAOGAN-29", "OBJECT_ID": "2015-069A", "EPOCH": "2025-12-20T07:25:46.885152", "MEAN_MOTION": 14.82892835, "ECCENTRICITY": 5.053e-05, "INCLINATION": 98.0212, "RA_OF_ASC_NODE": 17.5061, "ARG_OF_PERICENTER": 173.5724, "MEAN_ANOMALY": 186.5496, "EPHEMERIS_TYPE": 0, "CLASSIFICATION_TYPE": "U", "NORAD_CAT_ID": 41038, "ELEMENT_SET_NO": 999, "REV_AT_EPOCH": 54411, "BSTAR": 0.00012603678, "MEAN_MOTION_DOT": 9.67e-06, "MEAN_MOTION_DDOT": 0}, "tle": {"line1": "1 41038U 15069A   25354.30957043  .00000967  00000+0  12604-3 0  9994", "line2": "2 41038  98.0212  17.5061 0000505 173.5724 186.5496 14.82892835544113"}}, "geometry": {"type": "Point", "coordinates": [-159.5475379325657, 18.122597645355338]}}, {"type": "Feature", "properties": {"norad_id": 41167, "name": "KENT RIDGE 1", "group": "resource", "lat": -4.882993389976634, "lon": -8.619718165000524, "alt_km": 494.30090169605955, "timestamp": "2025-12-20T14:38:01.615790+00:00", "meta": {"OBJECT_NAME": "KENT RIDGE 1", "OBJECT_ID": "2015-077B", "EPOCH": "2025-12-20T02:45:02.433600", "MEAN_MOTION": 15.21689369, "ECCENTRICITY": 0.00085141, "INCLINATION": 14.9782, "RA_OF_ASC_NODE": 156.4146, "ARG_OF_PERICENTER": 235.187, "MEAN_ANOMALY": 124.765, "EPHEMERIS_TYPE": 0, "CLASSIFICATION_TYPE": "U", "NORAD_CAT_ID": 41167, "ELEMENT_SET_NO": 999, "REV_AT_EPOCH": 55376, "BSTAR": 0.0001172665, "MEAN_MOTION_DOT": 3.486e-05, "MEAN_MOTION_DDOT": 0}, "tle": {"line1": "1 41167U 15077B   25354.11461150  .00003486  00000+0  11727-3 0  9998", "line2": "2 41167  14.9782 156.4146 0008514 235.1870 124.7650 15.21689369553764"}}, "geometry": {"type": "Point", "coordinates": [-8.619718165000524, -4.882993389976634]}}, {"type": "Feature", "properties": {"norad_id": 41194, "name": "GAOFEN-4", "group": "resource", "lat": -0.06311800525300011, "lon": 54.62758459363078, "alt_km": 35792.1281924796, "timestamp": "2025-12-20T14:38:01.615804+00:00", "meta": {"OBJECT_NAME": "GAOFEN-4", "OBJECT_ID": "2015-083A", "EPOCH": "2025-12-19T15:27:26.627616", "MEAN_MOTION": 1.00273138, "ECCENTRICITY": 0.0002945, "INCLINATION": 0.1878, "RA_OF_ASC_NODE": 81.7841, "ARG_OF_PERICENTER": 93.4275, "MEAN_ANOMALY": 250.8523, "EPHEMERIS_TYPE": 0, "CLASSIFICATION_TYPE": "U", "NORAD_CAT_ID": 41194, "ELEMENT_SET_NO": 999, "REV_AT_EPOCH": 3672, "BSTAR": 0, "MEAN_MOTION_DOT": -3.11e-06, "MEAN_MOTION_DDOT": 0}, "tle": {"line1": "1 41194U 15083A   25353.64405819 -.00000311  00000+0  00000+0 0  9995", "line2": "2 41194   0.1878  81.7841 0002945  93.4275 250.8523  1.00273138 36722"}}, "geometry": {"type": "Point", "coordinates": [54.62758459363078, -0.06311800525300011]}}, {"type": "Feature", "properties": {"norad_id": 41240, "name": "JASON-3", "group": "resource", "lat": 58.494045814127155, "lon": -172.21760308446457, "alt_km": 1309.5583917814647, "timestamp": "2025-12-20T14:38:01.615815+00:00", "meta": {"OBJECT_NAME": "JASON-3", "OBJECT_ID": "2016-002A", "EPOCH": "2025-12-20T06:49:14.514528", "MEAN_MOTION": 12.87626871, "ECCENTRICITY": 0.00072202, "INCLINATION": 66.0399, "RA_OF_ASC_NODE": 141.9627, "ARG_OF_PERICENTER": 271.2739, "MEAN_ANOMALY": 88.7453, "EPHEMERIS_TYPE": 0, "CLASSIFICATION_TYPE": "U", "NORAD_CAT_ID": 41240, "ELEMENT_SET_NO": 999, "REV_AT_EPOCH": 46421, "BSTAR": -2.5784082e-05, "MEAN_MOTION_DOT": -6.9e-07, "MEAN_MOTION_DDOT": 0}, "tle": {"line1": "1 41240U 16002A   25354.28419577 -.00000069  00000+0 -25784-4 0  9998", "line2": "2 41240  66.0399 141.9627 0007220 271.2739  88.7453 12.87626871464218"}}, "geometry": {"type": "Point", "coordinates": [-172.21760308446457, 58.494045814127155]}}, {"type": "Feature", "properties": {"norad_id": 41335, "name": "SENTINEL-3A", "group": "resource", "lat": 70.42001307009137, "lon": 34.235422901836834, "alt_km": 795.2215549190469, "timestamp": "2025-12-20T14:38:01.615825+00:00", "meta": {"OBJECT_NAME": "SENTINEL-3A", "OBJECT_ID": "2016-011A", "EPOCH": "2025-12-20T04:11:49.856640", "MEAN_MOTION": 14.26733364, "ECCENTRICITY": 9.033e-05, "INCLINATION": 98.6305, "RA_OF_ASC_NODE": 59.0836, "ARG_OF_PERICENTER": 93.9672, "MEAN_ANOMALY": 266.1612, "EPHEMERIS_TYPE": 0, "CLASSIFICATION_TYPE": "U", "NORAD_CAT_ID": 41335, "ELEMENT_SET_NO": 999, "REV_AT_EPOCH": 51253, "BSTAR": 5.9604828e-05, "MEAN_MOTION_DOT": 1.01e-06, "MEAN_MOTION_DDOT": 0}, "tle": {"line1": "1 41335U 16011A   25354.17488260  .00000101  00000+0  59605-4 0  9990", "line2": "2 41335  98.6305  59.0836 0000903  93.9672 266.1612 14.26733364512537"}}, "geometry": {"type": "Point", "coordinates": [34.235422901836834, 70.42001307009137]}}]}